     2.100          NAVIGATION                              RINEX VERSION / TYPE
fic2rin                                 09/26/2016 00:05:37 PGM / RUN BY / DATE
                                                            END OF HEADER
24 16  9 25 20  0  0.0 -.236993655562D-04 -.568434188608D-12  .000000000000D+00
     .920000000000D+02  .509375000000D+01  .466412285087D-08 -.177048727640D+01
     .331550836563D-06  .468851125333D-02  .904314219952D-05  .515372541046D+04
     .720000000000D+05 -.130385160446D-07 -.130357688554D+01 -.838190317154D-07
     .947834354888D+00  .200500000000D+03  .396308189838D+00 -.803069165340D-08
    -.405016870578D-09  .100000000000D+01  .191600000000D+04  .000000000000D+00
     .340000000000D+01  .000000000000D+00  .232830643654D-08  .920000000000D+02
     .648060000000D+05  .400000000000D+01
25 16  9 25 20  0  0.0 -.252285040915D-03 -.693489710102D-11  .000000000000D+00
     .330000000000D+02  .833125000000D+02  .389694803781D-08  .240177826999D+01
     .428780913353D-05  .558362482116D-02  .770576298237D-05  .515369905090D+04
     .720000000000D+05 -.186264514923D-08 -.228077811396D+00 -.104308128357D-06
     .978518256996D+00  .239125000000D+03  .782976353719D+00 -.789032866386D-08
     .268582616115D-09  .100000000000D+01  .191600000000D+04  .000000000000D+00
     .240000000000D+01  .000000000000D+00  .558793544769D-08  .330000000000D+02
     .648060000000D+05  .400000000000D+01
26 16  9 25 20  0  0.0 -.476141460240D-03 -.682121026330D-11  .000000000000D+00
     .101000000000D+03  .787187500000D+02  .432410868791D-08  .196445472873D+01
     .408850610256D-05  .994919799268D-03  .811368227005D-05  .515358945274D+04
     .720000000000D+05  .000000000000D+00 -.239178979450D+00 -.484287738800D-07
     .960416344213D+00  .222343750000D+03 -.117923602734D+00 -.809390857235D-08
     .212151694112D-09  .100000000000D+01  .191600000000D+04  .000000000000D+00
     .240000000000D+01  .000000000000D+00  .698491930962D-08  .101000000000D+03
     .648060000000D+05  .400000000000D+01
27 16  9 25 20  0  0.0  .143845099956D-03  .488853402203D-11  .000000000000D+00
     .740000000000D+02 -.142187500000D+02  .453590322429D-08  .610393922728D-01
    -.683590769768D-06  .382827071007D-02  .315159559250D-05  .515365031624D+04
     .720000000000D+05  .633299350739D-07  .812140504843D+00  .521540641785D-07
     .972445261266D+00  .326093750000D+03  .342664830074D+00 -.840034990829D-08
     .114647632677D-09  .100000000000D+01  .191600000000D+04  .000000000000D+00
     .240000000000D+01  .000000000000D+00  .186264514923D-08  .740000000000D+02
     .648060000000D+05  .400000000000D+01
28 16  9 25 20  0  0.0  .554694328457D-03  .284217094304D-11  .000000000000D+00
     .920000000000D+02  .600000000000D+02  .377944314326D-08  .909181810729D+00
     .306032598019D-05  .199036567938D-01  .810064375401D-05  .515363623428D+04
     .720000000000D+05 -.318512320518D-06 -.152146014018D+00 -.145286321640D-06
     .989640207264D+00  .242187500000D+03 -.161111977795D+01 -.811676666734D-08
     .148934775160D-09  .100000000000D+01  .191600000000D+04  .000000000000D+00
     .485000000000D+01  .000000000000D+00 -.107102096081D-07  .920000000000D+02
     .648060000000D+05  .400000000000D+01
29 16  9 25 20  0  0.0  .649808906019D-03 -.125055521494D-11  .000000000000D+00
     .350000000000D+02 -.316562500000D+02  .433625205087D-08  .204877809339D+01
    -.176578760147D-05  .547222560272D-03  .345706939697D-05  .515374277306D+04
     .720000000000D+05 -.242143869400D-07  .872597876621D+00  .447034835815D-07
     .978486984196D+00  .318593750000D+03  .105820988257D+00 -.823677166603D-08
     .603596570791D-10  .100000000000D+01  .191600000000D+04  .000000000000D+00
     .240000000000D+01  .000000000000D+00 -.102445483208D-07  .350000000000D+02
     .648060000000D+05  .400000000000D+01
30 16  9 25 20  0  0.0  .151798594743D-03  .147792889038D-11  .000000000000D+00
     .910000000000D+02  .153125000000D+01  .461376361035D-08 -.271074190016D+01
     .316649675369D-07  .241246924270D-02  .943616032600D-05  .515377117729D+04
     .720000000000D+05 -.279396772385D-07 -.121187497171D+01  .223517417908D-07
     .950584706709D+00  .192312500000D+03 -.313396638118D+01 -.807747931658D-08
    -.395373611755D-09  .100000000000D+01  .191600000000D+04  .000000000000D+00
     .240000000000D+01  .000000000000D+00  .372529029846D-08  .910000000000D+02
     .648060000000D+05  .400000000000D+01
31 16  9 25 20  0  0.0  .245979521424D-03 -.216004991671D-11  .000000000000D+00
     .860000000000D+02  .117812500000D+02  .419374611493D-08 -.290258623557D+01
     .547617673874D-06  .832584581804D-02  .104326754808D-04  .515355987167D+04
     .720000000000D+05 -.577419996262D-07 -.124441058432D+01  .558793544769D-07
     .969590421984D+00  .184125000000D+03 -.378474889295D+00 -.777175229611D-08
    -.493591988659D-09  .100000000000D+01  .191600000000D+04  .000000000000D+00
     .240000000000D+01  .000000000000D+00 -.135041773319D-07  .860000000000D+02
     .648060000000D+05  .400000000000D+01
32 16  9 25 20  0  0.0 -.129259191453D-03 -.147792889038D-10  .000000000000D+00
     .800000000000D+01  .126250000000D+02  .501592321905D-08  .486954267417D+00
     .678002834320D-06  .650693662465D-03  .576488673687D-05  .515364097786D+04
     .720000000000D+05  .391155481339D-07 -.233118561451D+01 -.186264514923D-08
     .959032820161D+00  .267375000000D+03 -.235145827389D+01 -.832034657583D-08
    -.173578658819D-09  .100000000000D+01  .191600000000D+04  .000000000000D+00
     .240000000000D+01  .000000000000D+00  .931322574615D-09  .800000000000D+01
     .648060000000D+05  .400000000000D+01
28 16  9 25 19 59 44.0  .554695725441D-03  .284217094304D-11  .000000000000D+00
     .800000000000D+01  .600000000000D+02  .377944314326D-08  .906848184290D+00
     .306032598019D-05  .199036557460D-01  .810064375401D-05  .515363622856D+04
     .719840000000D+05 -.318512320518D-06 -.152145879429D+00 -.145286321640D-06
     .989640216042D+00  .242187500000D+03 -.161111989498D+01 -.811676666734D-08
     .148934775160D-09  .100000000000D+01  .191600000000D+04  .000000000000D+00
     .240000000000D+01  .000000000000D+00 -.107102096081D-07  .800000000000D+01
     .679560000000D+05  .400000000000D+01
15 16  9 25 19 59 44.0 -.328623689711D-03 -.136424205266D-11  .000000000000D+00
     .800000000000D+01  .109687500000D+02  .564452083123D-08 -.696108237211D+00
     .534579157829D-06  .849443534389D-02  .542588531971D-05  .515366470909D+04
     .719840000000D+05  .145286321640D-06 -.238875806794D+01  .121071934700D-06
     .930204850537D+00  .258000000000D+03  .504376667918D+00 -.868214736057D-08
    -.173221501085D-09  .100000000000D+01  .191600000000D+04  .000000000000D+00
     .240000000000D+01  .000000000000D+00 -.107102096081D-07  .800000000000D+01
     .681960000000D+05  .400000000000D+01
15 16  9 25 21 59 44.0 -.328633468598D-03 -.136424205266D-11  .000000000000D+00
     .900000000000D+01  .166562500000D+02  .575809699071D-08  .354102346401D+00
     .100396573544D-05  .849557574838D-02  .493228435516D-05  .515366690063D+04
     .791840000000D+05  .111758708954D-07 -.238882140059D+01  .465661287308D-07
     .930203093573D+00  .263812500000D+03  .504360577283D+00 -.882286750785D-08
    -.151792037033D-09  .100000000000D+01  .191600000000D+04  .000000000000D+00
     .240000000000D+01  .000000000000D+00 -.107102096081D-07  .900000000000D+01
     .720060000000D+05  .400000000000D+01
28 16  9 25 21 59 44.0  .554716680199D-03  .284217094304D-11  .000000000000D+00
     .170000000000D+02  .663437500000D+02  .364550899294D-08  .195715380784D+01
     .324659049511D-05  .199033026583D-01  .832602381706D-05  .515363218117D+04
     .791840000000D+05  .266358256340D-06 -.152202745981D+00 -.316649675369D-06
     .989644266862D+00  .228000000000D+03 -.161122585999D+01 -.752245619764D-08
     .208222959036D-09  .100000000000D+01  .191600000000D+04  .000000000000D+00
     .240000000000D+01  .000000000000D+00 -.107102096081D-07  .170000000000D+02
     .720060000000D+05  .400000000000D+01
 1 16  9 25 22  0  0.0  .352016650140D-04  .125055521494D-11  .000000000000D+00
     .420000000000D+02 -.994062500000D+02  .438375402952D-08 -.102727074222D+01
    -.507570803165D-05  .591929536313D-02  .864826142788D-05  .515370816231D+04
     .792000000000D+05  .158324837685D-06  .187021486269D+01 -.931322574615D-08
     .965135040606D+00  .212781250000D+03  .554201574503D+00 -.804176354316D-08
    -.428589281035D-10  .100000000000D+01  .191600000000D+04  .000000000000D+00
     .240000000000D+01  .000000000000D+00  .512227416039D-08  .420000000000D+02
     .720060000000D+05  .400000000000D+01
 2 16  9 25 22  0  0.0  .548155512661D-03 -.500222085975D-11  .000000000000D+00
     .680000000000D+02 -.744062500000D+02  .502056626959D-08 -.569240483540D+00
    -.369735062122D-05  .159569184761D-01  .807084143162D-05  .515364581108D+04
     .792000000000D+05 -.838190317154D-07  .182206562343D+01  .251457095146D-06
     .943934030961D+00  .220656250000D+03 -.208266804922D+01 -.856714257016D-08
    -.339299847486D-10  .100000000000D+01  .191600000000D+04  .000000000000D+00
     .340000000000D+01  .000000000000D+00 -.204890966415D-07  .680000000000D+02
     .720060000000D+05  .400000000000D+01
 3 16  9 25 22  0  0.0 -.891378149390D-04 -.204636307899D-11  .000000000000D+00
     .260000000000D+02  .653125000000D+01  .465697969618D-08 -.203056928518D+01
     .363215804100D-06  .209245947190D-03  .102017074823D-04  .515361615372D+04
     .792000000000D+05  .968575477600D-07  .291188311068D+01 -.316649675369D-07
     .959862733587D+00  .182312500000D+03  .427254583337D+00 -.802390565645D-08
     .419303179946D-09  .100000000000D+01  .191600000000D+04  .000000000000D+00
     .240000000000D+01  .000000000000D+00  .139698386192D-08  .260000000000D+02
     .720060000000D+05  .400000000000D+01
